start=new Date('2021-12-07T00:00:00.000Z').valueOf();
sats=[{"CLASSIFICATION_TYPE":"U","TIME_SYSTEM":"UTC","ARG_OF_PERICENTER":"73.5690","DECAY_DATE":null,"PERIAPSIS":"545.443","CENTER_NAME":"EARTH","EPOCH":"2021-12-06T21:49:56.078112","FILE":"3234296","RA_OF_ASC_NODE":"206.7983","PERIOD":"95.592","GP_ID":"191235684","RCS_SIZE":"LARGE","APOAPSIS":"548.971","OBJECT_ID":"2021-012AL","SITE":"AFETR","TLE_LINE1":"1 47654U 21012AL  21340.90967683  .00001116  00000-0  93824-4 0  9999","TLE_LINE2":"2 47654  53.0546 206.7983 0002547  73.5690 286.5578 15.06402088 45794","MEAN_MOTION":"15.06402088","MEAN_ELEMENT_THEORY":"SGP4","ECCENTRICITY":"0.00025470","MEAN_MOTION_DDOT":"0.0000000000000","REV_AT_EPOCH":"4579","MEAN_ANOMALY":"286.5578","REF_FRAME":"TEME","BSTAR":"0.00009382400000","SEMIMAJOR_AXIS":"6925.342","OBJECT_NAME":"STARLINK-2038","MEAN_MOTION_DOT":"0.00001116","NORAD_CAT_ID":"47654","LAUNCH_DATE":"2021-02-16","OBJECT_TYPE":"PAYLOAD","INCLINATION":"53.0546","COUNTRY_CODE":"US","EPHEMERIS_TYPE":"0","ELEMENT_SET_NO":"999"},{"NORAD_CAT_ID":"47655","OBJECT_NAME":"STARLINK-2039","MEAN_MOTION_DOT":"-0.00000707","EPHEMERIS_TYPE":"0","ELEMENT_SET_NO":"999","LAUNCH_DATE":"2021-02-16","OBJECT_TYPE":"PAYLOAD","INCLINATION":"53.0545","COUNTRY_CODE":"US","ECCENTRICITY":"0.00021850","TLE_LINE2":"2 47655  53.0545 209.2209 0002185  72.6610 287.4618 15.06395140 45710","MEAN_MOTION":"15.06395140","MEAN_ELEMENT_THEORY":"SGP4","BSTAR":"-0.00002858400000","REF_FRAME":"TEME","SEMIMAJOR_AXIS":"6925.363","REV_AT_EPOCH":"4571","MEAN_MOTION_DDOT":"0.0000000000000","MEAN_ANOMALY":"287.4618","RA_OF_ASC_NODE":"209.2209","CENTER_NAME":"EARTH","EPOCH":"2021-12-06T08:55:01.191648","FILE":"3234035","SITE":"AFETR","OBJECT_ID":"2021-012AM","TLE_LINE1":"1 47655U 21012AM  21340.37154157 -.00000707  00000-0 -28584-4 0  9993","PERIOD":"95.592","GP_ID":"191206825","RCS_SIZE":"LARGE","APOAPSIS":"548.742","CLASSIFICATION_TYPE":"U","TIME_SYSTEM":"UTC","ARG_OF_PERICENTER":"72.6610","DECAY_DATE":null,"PERIAPSIS":"545.715"},{"PERIAPSIS":"545.826","DECAY_DATE":null,"ARG_OF_PERICENTER":"78.2846","TIME_SYSTEM":"UTC","CLASSIFICATION_TYPE":"U","APOAPSIS":"548.673","GP_ID":"191234182","RCS_SIZE":"LARGE","PERIOD":"95.593","TLE_LINE1":"1 47656U 21012AN  21340.85255899 -.00000418  00000-0 -91262-5 0  9995","OBJECT_ID":"2021-012AN","SITE":"AFETR","FILE":"3234296","EPOCH":"2021-12-06T20:27:41.096736","CENTER_NAME":"EARTH","RA_OF_ASC_NODE":"187.0565","MEAN_ANOMALY":"281.8373","MEAN_MOTION_DDOT":"0.0000000000000","REV_AT_EPOCH":"4606","SEMIMAJOR_AXIS":"6925.385","REF_FRAME":"TEME","BSTAR":"-0.00000912620000","MEAN_ELEMENT_THEORY":"SGP4","TLE_LINE2":"2 47656  53.0542 187.0565 0002056  78.2846 281.8373 15.06388250 46065","MEAN_MOTION":"15.06388250","ECCENTRICITY":"0.00020560","COUNTRY_CODE":"US","INCLINATION":"53.0542","OBJECT_TYPE":"PAYLOAD","LAUNCH_DATE":"2021-02-16","ELEMENT_SET_NO":"999","EPHEMERIS_TYPE":"0","MEAN_MOTION_DOT":"-0.00000418","OBJECT_NAME":"STARLINK-2040","NORAD_CAT_ID":"47656"},{"TIME_SYSTEM":"UTC","CLASSIFICATION_TYPE":"U","PERIAPSIS":"545.949","ARG_OF_PERICENTER":"78.0251","DECAY_DATE":null,"FILE":"3234296","EPOCH":"2021-12-06T22:11:10.653504","CENTER_NAME":"EARTH","RA_OF_ASC_NODE":"206.7495","APOAPSIS":"548.505","GP_ID":"191234933","RCS_SIZE":"LARGE","PERIOD":"95.592","TLE_LINE1":"1 47657U 21012AP  21340.92442886  .00000925  00000-0  81000-4 0  9997","SITE":"AFETR","OBJECT_ID":"2021-012AP","MEAN_ELEMENT_THEORY":"SGP4","TLE_LINE2":"2 47657  53.0543 206.7495 0001845  78.0251 282.0945 15.06395668 45799","MEAN_MOTION":"15.06395668","ECCENTRICITY":"0.00018450","MEAN_ANOMALY":"282.0945","MEAN_MOTION_DDOT":"0.0000000000000","REV_AT_EPOCH":"4579","SEMIMAJOR_AXIS":"6925.362","BSTAR":"0.00008100000000","REF_FRAME":"TEME","MEAN_MOTION_DOT":"0.00000925","OBJECT_NAME":"STARLINK-2041","NORAD_CAT_ID":"47657","INCLINATION":"53.0543","COUNTRY_CODE":"US","OBJECT_TYPE":"PAYLOAD","LAUNCH_DATE":"2021-02-16","ELEMENT_SET_NO":"999","EPHEMERIS_TYPE":"0"},{"MEAN_ANOMALY":"286.3633","MEAN_MOTION_DDOT":"0.0000000000000","REV_AT_EPOCH":"4581","SEMIMAJOR_AXIS":"6925.402","REF_FRAME":"TEME","BSTAR":"0.00009933900000","MEAN_ELEMENT_THEORY":"SGP4","MEAN_MOTION":"15.06382524","TLE_LINE2":"2 47658  53.0540 206.7789 0002062  73.7583 286.3633 15.06382524 45816","ECCENTRICITY":"0.00020620","COUNTRY_CODE":"US","INCLINATION":"53.0540","OBJECT_TYPE":"PAYLOAD","LAUNCH_DATE":"2021-02-16","ELEMENT_SET_NO":"999","EPHEMERIS_TYPE":"0","MEAN_MOTION_DOT":"0.00001198","OBJECT_NAME":"STARLINK-2042","NORAD_CAT_ID":"47658","PERIAPSIS":"545.839","DECAY_DATE":null,"ARG_OF_PERICENTER":"73.7583","TIME_SYSTEM":"UTC","CLASSIFICATION_TYPE":"U","APOAPSIS":"548.695","GP_ID":"191235184","RCS_SIZE":"LARGE","PERIOD":"95.593","TLE_LINE1":"1 47658U 21012AQ  21340.91707363  .00001198  00000-0  99339-4 0  9998","SITE":"AFETR","OBJECT_ID":"2021-012AQ","FILE":"3234296","EPOCH":"2021-12-06T22:00:35.161632","CENTER_NAME":"EARTH","RA_OF_ASC_NODE":"206.7789"},{"CENTER_NAME":"EARTH","FILE":"3234296","EPOCH":"2021-12-06T22:00:00.999936","RA_OF_ASC_NODE":"86.8644","PERIOD":"95.174","APOAPSIS":"528.049","RCS_SIZE":"LARGE","GP_ID":"191235935","TLE_LINE1":"1 47659U 21012AR  21340.91667824 -.01062017  00000-0 -64133-1 0  9997","SITE":"AFETR","OBJECT_ID":"2021-012AR","TIME_SYSTEM":"UTC","CLASSIFICATION_TYPE":"U","ARG_OF_PERICENTER":"69.2795","DECAY_DATE":null,"PERIAPSIS":"525.985","MEAN_MOTION_DOT":"-0.01062017","OBJECT_NAME":"STARLINK-2043","NORAD_CAT_ID":"47659","OBJECT_TYPE":"PAYLOAD","LAUNCH_DATE":"2021-02-16","COUNTRY_CODE":"US","INCLINATION":"53.0349","EPHEMERIS_TYPE":"0","ELEMENT_SET_NO":"999","MEAN_ELEMENT_THEORY":"SGP4","TLE_LINE2":"2 47659  53.0349  86.8644 0001495  69.2795 113.9475 15.13013861  3664","MEAN_MOTION":"15.13013861","ECCENTRICITY":"0.00014950","REV_AT_EPOCH":"366","MEAN_MOTION_DDOT":"0.0000000000000","MEAN_ANOMALY":"113.9475","SEMIMAJOR_AXIS":"6905.152","BSTAR":"-0.06413300000000","REF_FRAME":"TEME"},{"TLE_LINE2":"2 47660  53.0544  82.6506 0001407  50.1360 252.4986 15.53073799  3693","MEAN_MOTION":"15.53073799","MEAN_ELEMENT_THEORY":"SGP4","ECCENTRICITY":"0.00014070","MEAN_ANOMALY":"252.4986","MEAN_MOTION_DDOT":"0.0000000000000","REV_AT_EPOCH":"369","BSTAR":"-0.01045500000000","REF_FRAME":"TEME","SEMIMAJOR_AXIS":"6785.895","OBJECT_NAME":"STARLINK-2044","MEAN_MOTION_DOT":"-0.00616183","NORAD_CAT_ID":"47660","INCLINATION":"53.0544","COUNTRY_CODE":"US","LAUNCH_DATE":"2021-02-16","OBJECT_TYPE":"PAYLOAD","ELEMENT_SET_NO":"999","EPHEMERIS_TYPE":"0","CLASSIFICATION_TYPE":"U","TIME_SYSTEM":"UTC","PERIAPSIS":"406.805","ARG_OF_PERICENTER":"50.1360","DECAY_DATE":null,"EPOCH":"2021-12-06T22:00:00.999936","FILE":"3234296","CENTER_NAME":"EARTH","RA_OF_ASC_NODE":"82.6506","RCS_SIZE":"LARGE","GP_ID":"191234683","APOAPSIS":"408.714","PERIOD":"92.719","OBJECT_ID":"2021-012AS","SITE":"AFETR","TLE_LINE1":"1 47660U 21012AS  21340.91667824 -.00616183  00000-0 -10455-1 0  9995"},{"RA_OF_ASC_NODE":"189.6043","FILE":"3234035","EPOCH":"2021-12-06T06:50:17.418912","CENTER_NAME":"EARTH","TLE_LINE1":"1 47661U 21012AT  21340.28492383 -.00000828  00000-0 -36669-4 0  9993","OBJECT_ID":"2021-012AT","SITE":"AFETR","APOAPSIS":"548.787","GP_ID":"191205831","RCS_SIZE":"LARGE","PERIOD":"95.593","TIME_SYSTEM":"UTC","CLASSIFICATION_TYPE":"U","PERIAPSIS":"545.691","DECAY_DATE":null,"ARG_OF_PERICENTER":"86.6296","NORAD_CAT_ID":"47661","MEAN_MOTION_DOT":"-0.00000828","OBJECT_NAME":"STARLINK-2051","ELEMENT_SET_NO":"999","EPHEMERIS_TYPE":"0","INCLINATION":"53.0548","COUNTRY_CODE":"US","OBJECT_TYPE":"PAYLOAD","LAUNCH_DATE":"2021-02-16","ECCENTRICITY":"0.00022350","MEAN_ELEMENT_THEORY":"SGP4","TLE_LINE2":"2 47661  53.0548 189.6043 0002235  86.6296 273.4948 15.06391665 45964","MEAN_MOTION":"15.06391665","SEMIMAJOR_AXIS":"6925.374","BSTAR":"-0.00003666900000","REF_FRAME":"TEME","MEAN_ANOMALY":"273.4948","REV_AT_EPOCH":"4596","MEAN_MOTION_DDOT":"0.0000000000000"},{"CENTER_NAME":"EARTH","FILE":"3234035","EPOCH":"2021-12-05T22:24:41.870016","RA_OF_ASC_NODE":"191.1926","PERIOD":"95.593","APOAPSIS":"548.855","GP_ID":"191206084","RCS_SIZE":"MEDIUM","TLE_LINE1":"1 47662U 21012AU  21339.93381794  .00000897  00000-0  79175-4 0  9990","OBJECT_ID":"2021-012AU","SITE":"AFETR","TIME_SYSTEM":"UTC","CLASSIFICATION_TYPE":"U","ARG_OF_PERICENTER":"78.6201","DECAY_DATE":null,"PERIAPSIS":"545.653","MEAN_MOTION_DOT":"0.00000897","OBJECT_NAME":"STARLINK-2052","NORAD_CAT_ID":"47662","OBJECT_TYPE":"PAYLOAD","LAUNCH_DATE":"2021-02-16","COUNTRY_CODE":"US","INCLINATION":"53.0538","EPHEMERIS_TYPE":"0","ELEMENT_SET_NO":"999","MEAN_ELEMENT_THEORY":"SGP4","MEAN_MOTION":"15.06386794","TLE_LINE2":"2 47662  53.0538 191.1926 0002312  78.6201 281.5048 15.06386794 45930","ECCENTRICITY":"0.00023120","MEAN_MOTION_DDOT":"0.0000000000000","REV_AT_EPOCH":"4593","MEAN_ANOMALY":"281.5048","SEMIMAJOR_AXIS":"6925.389","BSTAR":"0.00007917500000","REF_FRAME":"TEME"},{"PERIAPSIS":"545.782","DECAY_DATE":null,"ARG_OF_PERICENTER":"80.4566","TIME_SYSTEM":"UTC","CLASSIFICATION_TYPE":"U","APOAPSIS":"548.695","RCS_SIZE":"LARGE","GP_ID":"191235435","PERIOD":"95.593","TLE_LINE1":"1 47663U 21012AV  21340.91667824 -.00001531  00000-0 -83929-4 0  9992","SITE":"AFETR","OBJECT_ID":"2021-012AV","FILE":"3234296","EPOCH":"2021-12-06T22:00:00.999936","CENTER_NAME":"EARTH","RA_OF_ASC_NODE":"106.7650","MEAN_ANOMALY":"32.7592","REV_AT_EPOCH":"359","MEAN_MOTION_DDOT":"0.0000000000000","SEMIMAJOR_AXIS":"6925.373","REF_FRAME":"TEME","BSTAR":"-0.00008392900000","MEAN_ELEMENT_THEORY":"SGP4","TLE_LINE2":"2 47663  53.0560 106.7650 0002103  80.4566  32.7592 15.06391870  3592","MEAN_MOTION":"15.06391870","ECCENTRICITY":"0.00021030","INCLINATION":"53.0560","COUNTRY_CODE":"US","OBJECT_TYPE":"PAYLOAD","LAUNCH_DATE":"2021-02-16","ELEMENT_SET_NO":"999","EPHEMERIS_TYPE":"0","MEAN_MOTION_DOT":"-0.00001531","OBJECT_NAME":"STARLINK-2053","NORAD_CAT_ID":"47663"}];
